OBJECT_NAME,OBJECT_ID,EPOCH,MEAN_MOTION,ECCENTRICITY,INCLINATION,RA_OF_ASC_NODE,ARG_OF_PERICENTER,MEAN_ANOMALY,EPHEMERIS_TYPE,CLASSIFICATION_TYPE,NORAD_CAT_ID,ELEMENT_SET_NO,REV_AT_EPOCH,BSTAR,MEAN_MOTION_DOT,MEAN_MOTION_DDOT
KUZGTU 1 (RS47S),2023-091AV,2026-06-17T10:14:14.305344,15.29865909,.00122937,97.5062,232.9090,97.3043,262.9595,0,U,57217,999,16441,.30945314E-3,.8893E-4,0
SONATE-2,2024-043Q,2026-06-17T09:28:57.147168,15.58731492,.00070546,97.5537,318.8032,194.9241,165.1808,0,U,59112,999,12792,.43430326E-3,.33446E-3,0
MESAT1,2024-125G,2026-06-17T13:18:16.626240,15.63233272,.00096083,97.2283,26.0449,202.4554,157.6286,0,U,60209,999,10962,.49309576E-3,.45262E-3,0
OOV-CUBE (TUBSAT-30),2024-128F,2026-06-17T14:06:24.590304,15.02774856,.00445898,61.9933,224.1762,133.8534,226.6256,0,U,60240,999,10617,.1239575E-3,.1484E-4,0
COLIBRI-S (RS67S),2024-199M,2026-06-17T13:53:49.500960,15.47738618,.00062631,97.2988,42.4366,277.1190,82.9348,0,U,61746,999,13747,.34006754E-3,.17547E-3,0
HORS 3 (RS81S),2024-199U,2026-06-17T14:30:11.970144,15.54997906,.00037582,97.2971,44.4533,275.9061,84.1765,0,U,61753,999,13762,.45335932E-3,.30368E-3,0
HORS 4 (RS82S),2024-199V,2026-06-17T11:59:15.164448,15.59703278,.00031028,97.2916,45.5499,256.5252,103.5659,0,U,61754,999,13769,.48866397E-3,.3905E-3,0
SIT-2086,2024-199AF,2026-06-17T13:59:36.043584,15.53108590,.00045963,97.2927,44.9067,248.6491,111.4272,0,U,61764,999,13449,.4770739E-3,.29845E-3,0
HYPERVIEW 1G (RS66S),2024-199AP,2026-06-17T07:35:55.719168,15.75864545,.00037581,97.2861,48.0422,218.3555,141.7444,0,U,61772,999,13469,.74599292E-3,.116045E-2,0
ALTAIR (RS65S),2024-199AW,2026-06-17T13:37:31.238688,15.37027290,.00110921,97.3023,37.9160,309.7220,50.3046,0,U,61779,999,13717,.18235228E-3,.6536E-4,0
ASRTU-1 (AO-123),2024-199AY,2026-06-17T14:54:24.558912,15.35680780,.00122772,97.2995,37.2879,312.4202,47.6002,0,U,61781,999,13399,.17944281E-3,.6159E-4,0
SAMSAT-IONOSPHERE (RS75S),2024-199BB,2026-06-17T13:45:38.471616,15.57652334,.00058965,97.2939,44.4696,274.5591,85.4992,0,U,61784,999,13762,.52576146E-3,.38922E-3,0
RTU MIREA 1 (RS51S),2024-199BC,2026-06-17T14:19:33.678048,15.61124879,.00055477,97.2927,45.3277,265.6338,94.4286,0,U,61785,999,13453,.54946933E-3,.46433E-3,0
TEVEL2-4,2025-052D,2026-06-16T23:40:40.633824,15.34605865,.00048596,97.3904,64.3780,103.4475,256.7310,0,U,63213,999,7008,.48033828E-3,.16047E-3,0
TEVEL2-5,2025-052E,2026-06-16T22:36:15.547104,15.34430962,.00047962,97.3902,64.2812,104.9018,255.2757,0,U,63214,999,7007,.46132068E-3,.15322E-3,0
TEVEL2-6,2025-052F,2026-06-17T14:33:05.469120,15.34413605,.00047306,97.3904,64.9306,104.3136,255.8632,0,U,63215,999,7017,.44009952E-3,.14604E-3,0
TEVEL2-1,2025-052H,2026-06-16T23:35:41.336448,15.33862790,.0004776,97.3878,63.9315,114.0246,246.1497,0,U,63217,999,7006,.46759393E-3,.15254E-3,0
TEVEL2-3,2025-052J,2026-06-16T23:27:59.118912,15.33918227,.00047234,97.3882,63.9480,114.1810,245.9927,0,U,63218,999,7006,.46353699E-3,.15147E-3,0
TEVEL2-2,2025-052K,2026-06-16T15:46:26.181408,15.33861744,.00047153,97.3883,63.6082,115.1533,245.0199,0,U,63219,999,7001,.44263378E-3,.14434E-3,0
TEVEL2-9,2025-052AD,2026-06-17T14:43:51.941568,15.31908741,.00078482,97.3941,63.9387,129.6989,230.4946,0,U,63237,999,7009,.41917025E-3,.12855E-3,0
TEVEL2-7,2025-052AE,2026-06-17T11:00:39.214944,15.31607306,.00078942,97.3942,63.7002,130.4591,229.7340,0,U,63238,999,7006,.40647401E-3,.12346E-3,0
TEVEL2-8,2025-052AF,2026-06-16T16:23:33.918144,15.31573973,.0007849,97.3946,62.9032,133.0156,227.1744,0,U,63239,999,6994,.40820607E-3,.12386E-3,0
INNOSAT 16 (RS92S7),2025-155C,2026-06-17T14:13:04.125504,15.25459879,.00106125,97.4567,135.7189,173.8720,186.2649,0,U,64878,999,8073,.18589462E-3,.4636E-4,0
GEOSCAN 6 (RS92S6),2025-155D,2026-06-17T13:46:28.480800,15.30157732,.00084023,97.4560,137.1273,161.1935,198.9617,0,U,64879,999,8082,.2831931E-3,.8196E-4,0
GEOSCAN 1 (RS92S1),2025-155E,2026-06-17T13:49:47.092800,15.30753172,.00083352,97.4556,137.2779,160.9060,199.2495,0,U,64880,999,8083,.29694267E-3,.8758E-4,0
239ALFEROV (RS61S),2025-155F,2026-06-17T14:39:16.154496,15.32948256,.00080965,97.4557,137.8753,157.7365,202.4230,0,U,64881,999,8087,.36396473E-3,.1152E-3,0
GEOSCAN 2 (RS92S2),2025-155Q,2026-06-17T13:40:35.492736,15.31024573,.00081459,97.4555,137.4241,148.3201,211.8532,0,U,64890,999,8084,.2948838E-3,.877E-4,0
GEOSCAN 5 (RS92S5),2025-155R,2026-06-17T14:23:20.312160,15.33265912,.00068111,97.4550,138.0018,161.3319,198.8174,0,U,64891,999,8088,.3652025E-3,.11672E-3,0
GEOSCAN 4 (RS92S4),2025-155S,2026-06-17T14:00:30.962016,15.33420761,.00068688,97.4553,138.0344,160.9364,199.2136,0,U,64892,999,8088,.36596308E-3,.11754E-3,0
GEOSCAN 3 (RS92S3),2025-155T,2026-06-17T14:00:51.983136,15.35407032,.00068337,97.4541,138.4654,159.2292,200.9230,0,U,64893,999,8091,.43020686E-3,.14737E-3,0
