KUZGTU 1 (RS47S)        
1 57217U 23091AV  26168.42655446  .00008893  00000+0  30945-3 0  9997
2 57217  97.5062 232.9090 0012293  97.3043 262.9595 15.29865909164419
SONATE-2                
1 59112U 24043Q   26168.39510587  .00033446  00000+0  43430-3 0  9998
2 59112  97.5537 318.8032 0007054 194.9241 165.1808 15.58731492127922
MESAT1                  
1 60209U 24125G   26168.55435910  .00045262  00000+0  49310-3 0  9994
2 60209  97.2283  26.0449 0009608 202.4554 157.6286 15.63233272109627
OOV-CUBE (TUBSAT-30)    
1 60240U 24128F   26168.58778461  .00001484  00000+0  12396-3 0  9998
2 60240  61.9933 224.1762 0044589 133.8534 226.6256 15.02774856106175
COLIBRI-S (RS67S)       
1 61746U 24199M   26168.57904515  .00017547  00000+0  34007-3 0  9998
2 61746  97.2988  42.4366 0006263 277.1190  82.9348 15.47738618137474
HORS 3 (RS81S)          
1 61753U 24199U   26168.60430521  .00030368  00000+0  45336-3 0  9994
2 61753  97.2971  44.4533 0003758 275.9061  84.1765 15.54997906137620
HORS 4 (RS82S)          
1 61754U 24199V   26168.49948107  .00039050  00000+0  48866-3 0  9994
2 61754  97.2916  45.5499 0003102 256.5252 103.5659 15.59703278137690
SIT-2086                
1 61764U 24199AF  26168.58305606  .00029845  00000+0  47707-3 0  9990
2 61764  97.2927  44.9067 0004596 248.6491 111.4272 15.53108590134496
HYPERVIEW 1G (RS66S)    
1 61772U 24199AP  26168.31661712  .00116045  00000+0  74599-3 0  9991
2 61772  97.2861  48.0422 0003758 218.3555 141.7444 15.75864545134698
ALTAIR (RS65S)          
1 61779U 24199AW  26168.56772267  .00006536  00000+0  18235-3 0  9991
2 61779  97.3023  37.9160 0011092 309.7220  50.3046 15.37027290137171
ASRTU-1 (AO-123)        
1 61781U 24199AY  26168.62111758  .00006159  00000+0  17944-3 0  9990
2 61781  97.2995  37.2879 0012277 312.4202  47.6002 15.35680780133992
SAMSAT-IONOSPHERE (RS7*)
1 61784U 24199BB  26168.57336194  .00038922  00000+0  52576-3 0  9993
2 61784  97.2939  44.4696 0005896 274.5591  85.4992 15.57652334137628
RTU MIREA 1 (RS51S)     
1 61785U 24199BC  26168.59691757  .00046433  00000+0  54947-3 0  9995
2 61785  97.2927  45.3277 0005547 265.6338  94.4286 15.61124879134530
TEVEL2-4                
1 63213U 25052D   26167.98658141  .00016047  00000+0  48034-3 0  9992
2 63213  97.3904  64.3780 0004859 103.4475 256.7310 15.34605865 70089
TEVEL2-5                
1 63214U 25052E   26167.94184661  .00015322  00000+0  46132-3 0  9992
2 63214  97.3902  64.2812 0004796 104.9018 255.2757 15.34430962 70074
TEVEL2-6                
1 63215U 25052F   26168.60631330  .00014604  00000+0  44010-3 0  9992
2 63215  97.3904  64.9306 0004730 104.3136 255.8632 15.34413605 70179
TEVEL2-1                
1 63217U 25052H   26167.98311732  .00015254  00000+0  46759-3 0  9999
2 63217  97.3878  63.9315 0004776 114.0246 246.1497 15.33862790 70062
TEVEL2-3                
1 63218U 25052J   26167.97776758  .00015147  00000+0  46354-3 0  9994
2 63218  97.3882  63.9480 0004723 114.1810 245.9927 15.33918227 70063
TEVEL2-2                
1 63219U 25052K   26167.65724747  .00014434  00000+0  44263-3 0  9996
2 63219  97.3883  63.6082 0004715 115.1533 245.0199 15.33861744 70012
TEVEL2-9                
1 63237U 25052AD  26168.61379562  .00012855  00000+0  41917-3 0  9992
2 63237  97.3941  63.9387 0007848 129.6989 230.4946 15.31908741 70096
TEVEL2-7                
1 63238U 25052AE  26168.45878721  .00012346  00000+0  40647-3 0  9990
2 63238  97.3942  63.7002 0007894 130.4591 229.7340 15.31607306 70069
TEVEL2-8                
1 63239U 25052AF  26167.68303146  .00012386  00000+0  40821-3 0  9997
2 63239  97.3946  62.9032 0007849 133.0156 227.1744 15.31573973 69941
INNOSAT 16 (RS92S7)     
1 64878U 25155C   26168.59240886  .00004636  00000+0  18589-3 0  9998
2 64878  97.4567 135.7189 0010612 173.8720 186.2649 15.25459879 80734
GEOSCAN 6 (RS92S6)      
1 64879U 25155D   26168.57394075  .00008196  00000+0  28319-3 0  9994
2 64879  97.4560 137.1273 0008402 161.1935 198.9617 15.30157732 80824
GEOSCAN 1 (RS92S1)      
1 64880U 25155E   26168.57623950  .00008758  00000+0  29694-3 0  9994
2 64880  97.4556 137.2779 0008335 160.9060 199.2495 15.30753172 80833
239ALFEROV (RS61S)      
1 64881U 25155F   26168.61060364  .00011520  00000+0  36396-3 0  9992
2 64881  97.4557 137.8753 0008096 157.7365 202.4230 15.32948256 80878
GEOSCAN 2 (RS92S2)      
1 64890U 25155Q   26168.56985524  .00008770  00000+0  29488-3 0  9997
2 64890  97.4555 137.4241 0008145 148.3201 211.8532 15.31024573 80846
GEOSCAN 5 (RS92S5)      
1 64891U 25155R   26168.59954065  .00011672  00000+0  36520-3 0  9997
2 64891  97.4550 138.0018 0006811 161.3319 198.8174 15.33265912 80880
GEOSCAN 4 (RS92S4)      
1 64892U 25155S   26168.58369169  .00011754  00000+0  36596-3 0  9996
2 64892  97.4553 138.0344 0006868 160.9364 199.2136 15.33420761 80881
GEOSCAN 3 (RS92S3)      
1 64893U 25155T   26168.58393499  .00014737  00000+0  43021-3 0  9995
2 64893  97.4541 138.4654 0006833 159.2292 200.9230 15.35407032 80917
